DUCHIFAT-3              
1 44854U 19089C   24317.09036633  .00047174  00000+0  17716-2 0  9995
2 44854  36.9530 225.5813 0012688 266.9883  92.9416 15.26164135270796
ANGELS                  
1 44876U 19092D   24317.78055513  .00015040  00000+0  49736-3 0  9992
2 44876  97.4662 146.9298 0009417 145.4513 214.7342 15.31406300272061
TIANQIN 1 (CAS-6)       
1 44879U 19093A   24317.92040003  .00007382  00000+0  77396-3 0  9993
2 44879  97.8270  35.6007 0012675 178.5893 181.5362 14.89781752265315
ETRSS-1                 
1 44880U 19093B   24317.88178237  .00007462  00000+0  77913-3 0  9995
2 44880  97.8273  35.7430 0012856 180.9526 179.1669 14.89938032265309
TIANYAN 01              
1 44881U 19093C   24317.90541947  .00003022  00000+0  36295-3 0  9997
2 44881  97.8165  31.7975 0013779 190.7965 169.2956 14.84662319265105
TIANYAN 02              
1 44882U 19093D   24317.89764571  .00012641  00000+0  11833-2 0  9993
2 44882  97.8362  39.3604 0012868 175.1400 184.9947 14.94153348265468
CBERS 4A                
1 44883U 19093E   24317.94702934  .00003629  00000+0  46817-3 0  9992
2 44883  97.8183  30.5461 0000962 179.1025 181.0190 14.81610718265017
WEILAI 1R               
1 44884U 19093F   24317.88032173  .00009419  00000+0  92258-3 0  9990
2 44884  97.8276  37.7745 0011111 179.3078 180.8158 14.92446400265459
FLORIPASAT-1            
1 44885U 19093G   24317.92063663  .00012160  00000+0  11433-2 0  9996
2 44885  97.8331  39.6262 0011635 177.0858 183.0432 14.93999921265541
SHUNTIAN                
1 44886U 19093H   24317.92089096  .00007307  00000+0  76150-3 0  9990
2 44886  97.8380  38.9288 0012932 189.2115 170.8868 14.90022511265454
2019-093L               
1 44889U 19093L   24317.91713669  .00006820  00000+0  73010-3 0  9993
2 44889  97.8124  32.3013 0013415 175.2232 184.9116 14.88953103265122
ELEKTRO-L 3             
1 44903U 19095A   24317.89632668 -.00000088  00000+0  00000+0 0  9994
2 44903   0.0803  63.6807 0001935 197.8728 189.7060  1.00270719 17874
GONETS-M 14             
1 44905U 19096A   24317.93947223  .00000043  00000+0  24253-3 0  9998
2 44905  82.5218  84.9814 0013004 344.2997  15.7678 12.42881267221471
GONETS-M 15             
1 44906U 19096B   24317.88465156  .00000053  00000+0  31410-3 0  9997
2 44906  82.5238  85.3771 0015187   6.9749 353.1539 12.42883737221437
GONETS-M 16             
1 44907U 19096C   24317.91040509  .00000029  00000+0  13566-3 0  9998
2 44907  82.5184  84.5728 0011754  49.2108 310.9989 12.42885196221426
RS-44 & BREEZE-KM R/B   
1 44909U 19096E   24317.89068362  .00000023  00000+0  40530-4 0  9990
2 44909  82.5244   5.9623 0218445  63.7031 298.6332 12.79735798227992
JILIN-1 KUANFU 01       
1 45016U 20003A   24317.90762772  .00009820  00000+0  52985-3 0  9998
2 45016  97.5667  29.7353 0011329 334.5131  25.5541 15.14905830267556
XINGYUN-2 01            
1 45602U 20028A   24317.93624979  .00005957  00000+0  39718-3 0  9991
2 45602  97.4585 313.8070 0011405  49.0607 311.1607 15.07379868247136
XINGYUN-2 02            
1 45603U 20028B   24317.92675160  .00004582  00000+0  30630-3 0  9996
2 45603  97.5131 324.6187 0013617 105.0466 255.2270 15.07383108247133
HAIYANG-1D              
1 45721U 20036A   24317.88269044  .00000742  00000+0  28094-3 0  9996
2 45721  98.6053 257.5064 0002716  33.6792 326.4564 14.34140300231654
M2 PATHFINDER           
1 45727U 20037E   24316.73261848  .00008125  00000+0  66754-3 0  9998
2 45727  97.7819 132.6769 0011930 356.6841   3.4300 14.99382907238037
GAOFEN DUOMO (GFDM)     
1 45856U 20042A   24317.94787953  .00002718  00000+0  39395-3 0  9994
2 45856  97.8536  25.2599 0013485 155.4346 204.7510 14.76804366235227
ZINYUAN-3               
1 45939U 20051A   24317.95426377  .00012144  00000+0  54733-3 0  9994
2 45939  97.3527  30.9115 0005572 233.2135 126.8590 15.21171607238973
TIANTUO 5               
1 46234U 20058C   24317.93230900  .00064123  00000+0  96189-3 0  9998
2 46234  97.2778  16.7049 0007960 189.6652 170.4450 15.54676270235764
TYVAK-0172              
1 46267U 20059C   24317.33758123  .00039460  00000+0  21155-2 0  9997
2 46267  97.8038 162.6655 0001968 128.1648 231.9760 15.14860693229090
ION-MK01                
1 46274U 20061C   24317.92924348  .00026695  00000+0  71597-3 0  9999
2 46274  97.2802  19.8313 0002457 278.1561  81.9406 15.37942768232777
UPMSAT-2                
1 46276U 20061E   24317.75485448  .00039249  00000+0  85349-3 0  9994
2 46276  97.2785  23.0036 0000782  21.9015 338.2267 15.44221366233018
NEMO-HD                 
1 46277U 20061F   24317.91347031  .00013903  00000+0  47355-3 0  9992
2 46277  97.2790  17.3824 0001553  34.2678 325.8663 15.30502534232650
DIDO 3                  
1 46284U 20061N   24317.91553343  .00080203  00000+0  13636-2 0  9996
2 46284  97.3276  24.2984 0001913  35.1791 324.9587 15.51156796232336
FLOCK 4V-14             
1 46286U 20061Q   24317.81907131  .01143519  61268-3  30863-2 0  9994
2 46286  97.3302  35.7544 0004602 313.6960  46.3934 15.94424361233084
AMICALSAT               
1 46287U 20061R   24317.70900263  .00175467  00000+0  17973-2 0  9998
2 46287  97.3252  26.9444 0001170 330.2785  29.8408 15.64412726232526
3CAT-5A                 
1 46292U 20061W   24317.42662400  .00017692  00000+0  67362-3 0  9994
2 46292  97.3301  15.1571 0003904  61.2762 298.8869 15.26787076231700
3CAT-5B                 
1 46293U 20061X   24317.92801085  .00017206  00000+0  65275-3 0  9996
2 46293  97.3311  15.9990 0003689  57.2918 302.8677 15.26914095231776
OSM-1 CICERO            
1 46294U 20061Y   24317.91083324  .00044314  00000+0  10077-2 0  9993
2 46294  97.3340  23.4418 0002630  38.7153 321.4283 15.42859864232285
FLOCK 4V-13             
1 46297U 20061AB  24317.76393663  .00923746  00000+0  33283-2 0  9998
2 46297  97.3231  35.0771 0006673 296.9967  63.0622 15.86478765232977
KEPLER-2 (TARS)         
1 46319U 20061AZ  24317.77589372  .00402777  00000+0  18848-2 0  9994
2 46319  97.3230  31.6876 0005511 238.7261 121.3469 15.82187601232834
NAPA-1                  
1 46320U 20061BA  24317.91406200  .00026122  00000+0  91953-3 0  9995
2 46320  97.3357  18.6572 0001467  24.3585 335.7724 15.29298791231971
JILIN-1 GAOFEN 3B       
1 46454U 20065A   24317.92082568  .00033861  00000+0  97752-3 0  9996
2 46454  97.3199   0.8798 0010112  52.6192 307.5971 15.35552797230179
JILIN-1 GAOFEN 3E       
1 46457U 20065D   24317.90891912  .00032502  00000+0  95186-3 0  9998
2 46457  97.3212   0.9034 0009217  70.8472 289.3768 15.35118442230164
JILIN-1 GAOFEN 3F       
1 46458U 20065E   24317.94600447  .00032074  00000+0  93873-3 0  9999
2 46458  97.3145 359.6345 0009483  60.6937 299.5253 15.35138286230178
JILIN-1 GAOFEN 3G       
1 46459U 20065F   24317.90768986  .00032720  00000+0  95005-3 0  9996
2 46459  97.3259   2.1352 0010089  65.1834 295.0458 15.35378591230176
JILIN-1 GAOFEN 3H       
1 46460U 20065G   24317.93482355  .00031520  00000+0  93568-3 0  9993
2 46460  97.3160 359.7601 0009550  63.3222 296.8998 15.34694507230163
JILIN-1 GAOFEN 3J       
1 46462U 20065J   24317.93645918  .00033837  00000+0  97605-3 0  9990
2 46462  97.3196   0.9538 0009195  60.9877 299.2287 15.35586596230181
HAIYANG-2C              
1 46469U 20066A   24317.91580386  .00000116  00000+0  17880-3 0  9994
2 46469  65.9963 222.5205 0004650 253.3724 106.6834 13.83366336209098
HJ-2A                   
1 46478U 20067A   24317.92439003  .00002457  00000+0  36002-3 0  9992
2 46478  97.9324  37.3690 0003459   1.8845 358.2378 14.76490550222485
HJ-2B                   
1 46479U 20067B   24317.89239301  .00002567  00000+0  37577-3 0  9998
2 46479  97.9369  37.9782 0003399  95.0912 265.0686 14.76491275222488
GONETS-M 17             
1 46486U 20068A   24317.93553736  .00000049  00000+0  28436-3 0  9990
2 46486  82.4993 349.0871 0022262 220.3305 139.6124 12.42881276186952
GONETS-M 18             
1 46487U 20068B   24317.90117439  .00000051  00000+0  29405-3 0  9994
2 46487  82.4947 348.4492 0019508 216.6383 143.3363 12.42871221186931
GONETS-M 19             
1 46488U 20068C   24317.87538461  .00000055  00000+0  32503-3 0  9990
2 46488  82.4972 348.7938 0013043 231.0569 128.9349 12.42895926187036
MEZNSAT                 
1 46489U 20068D   24317.91054295  .00064441  00000+0  14877-2 0  9996
2 46489  97.8228 292.1632 0012550 116.9358 243.3172 15.42233749227553
YARILO 1                
1 46490U 20068E   24317.87959453  .00109033  00000+0  19158-2 0  9997
2 46490  97.8229 294.3663 0012212 111.7936 248.4615 15.50033385227689
YARILO 2                
1 46491U 20068F   24317.94015272  .00120129  00000+0  18943-2 0  9998
2 46491  97.8132 294.2571 0013100 111.9199 248.3447 15.53021727227682
LACUNASAT-3             
1 46492U 20068G   24317.92585768  .00126784  00000+0  18040-2 0  9990
2 46492  97.8155 295.7198 0012342 108.4816 251.7779 15.55835659227767
DEKART                  
1 46493U 20068H   24317.91201955  .00016417  00000+0  75892-3 0  9993
2 46493  97.8347 283.3304 0014244 153.2739 206.9232 15.20163240226945
NORBI                   
1 46494U 20068J   24317.91437597  .00019997  00000+0  85101-3 0  9997
2 46494  97.8344 284.7250 0013449 148.0112 212.1942 15.22959009227037
SALSAT                  
1 46495U 20068K   24317.89307697  .00011993  00000+0  60300-3 0  9994
2 46495  97.8358 281.4723 0013619 153.5407 206.6524 15.17327024226829
ICEYE-X6                
1 46497U 20068M   24317.90570418  .00006929  00000+0  55159-3 0  9990
2 46497  97.9936 277.7194 0002696 244.0074 116.0871 15.00718026225975
NETSAT-4                
1 46504U 20068U   24317.88305566  .00019943  00000+0  89589-3 0  9990
2 46504  97.8225 279.7335 0007728 190.1044 170.0036 15.21169038226725
NETSAT-3                
1 46505U 20068V   24317.86034388  .00021648  00000+0  99120-3 0  9997
2 46505  97.8213 279.0310 0006824 202.6739 157.4194 15.20501237226707
